#aV2020  1  9  0  0  0.00000000     288 DD+AD WGS84 FIT  NGA
## 2087 345600.00000000   300.00000000 58857 0.0000000000000
+   32     1  2  3  4  5  6  7  8  9 10 11 12 13 14 15 16 17
+         18 19 20 21 22 23 24 25 26 27 28 29 30 31 32  0  0
+          0  0  0  0  0  0  0  0  0  0  0  0  0  0  0  0  0
+          0  0  0  0  0  0  0  0  0  0  0  0  0  0  0  0  0
+          0  0  0  0  0  0  0  0  0  0  0  0  0  0  0  0  0
++         2  2  2  2  2  2  2  2  2  2  2  2  2  2  2  2  2
++         2  2  2  2  2  2  2  2  2  2  2  2  2  2  2  0  0
++         0  0  0  0  0  0  0  0  0  0  0  0  0  0  0  0  0
++         0  0  0  0  0  0  0  0  0  0  0  0  0  0  0  0  0
++         0  0  0  0  0  0  0  0  0  0  0  0  0  0  0  0  0
%c cc cc ccc ccc cccc cccc cccc cccc ccccc ccccc ccccc ccccc
%c cc cc ccc ccc cccc cccc cccc cccc ccccc ccccc ccccc ccccc
%f  0.0000000  0.000000000  0.00000000000  0.000000000000000
%f  0.0000000  0.000000000  0.00000000000  0.000000000000000
%i    0    0    0    0      0      0      0      0         0
%i    0    0    0    0      0      0      0      0         0
/*      NGA, ST. LOUIS,MO.                                  
/*   EPHEMERIS COMPUTED FROM 2 DAYS OF DATA                 
/*   EPOCHA v5 SMOOTHER                                     
/*   G1762 IERS2010 SATAF SATAPC                            
*  2020  1  9  8 20  0.00000000
P  1  16507.037540  13890.607697 -15909.823460   -256.697463                    
V  1 -19576.858295  -2244.235918 -22245.919633     -0.121645                    
P  2   7186.768728 -14549.710327  21648.835636   -382.485161                    
V  2  25831.715664   3355.419378  -6615.881268     -0.072269                    
P  3  13410.106590  21719.254048   7450.307510    -68.769942                    
V  3    937.263026   9782.206263 -29878.173274     -0.075710                    
P  4   8266.054751  13316.451292  21446.992712    -31.780236                    
V  4 -18492.387415  19987.120372  -5303.537502     -0.054302                    
P  5   -499.862829 -23687.937282  11665.886227     -5.844206                    
V  5   8194.037121  13002.670569  26637.411967     -0.005259                    
P  6  19762.212593  -7580.480957  16119.490317   -177.275097                    
V  6  19758.027562   4968.875757 -21925.333193     -0.103938                    
P  7  26134.284695   5939.759247   1407.328530   -188.184271                    
V  7  -1883.366905   2303.081624  31224.026518     -0.082672                    
P  8   -730.423258  19874.513214 -17451.023472    -19.596631                    
V  8 -15355.754028  16252.775196  19342.574629     -0.012673                    
P  9  16112.420738   3592.521516  20751.590680   -128.292975                    
V  9 -16035.403279  21125.659042   8758.685186     -0.087691                    
P 10 -14411.492231   4528.794537 -21777.874817   -202.982811                    
V 10  -9632.158663 -26085.386957    721.130825     -0.136998                    
P 11  11183.524986  13289.913863 -20516.032643   -395.296592                    
V 11 -23890.687557   8279.249453  -8157.676562      0.108629                    
P 12  -9702.382440 -24502.641247   3766.739017    164.273411                    
V 12    568.764577  -5396.847558 -31599.674956     -0.040773                    
P 13   9811.555906 -21137.680619 -12793.963043    -21.165763                    
V 13  13232.374524  -9357.250659  25933.273115      0.025505                    
P 14 -18241.897721  19162.119617    598.739762    -39.863886                    
V 14  -2406.370371  -1841.726522 -31845.774930      0.022699                    
P 15  -2554.087221 -19793.150492 -17645.083391   -259.860032                    
V 15  14308.747355 -16964.287484  17642.194310      0.026423                    
P 16  -2318.890552  23096.663150  12284.656842   -111.699627                    
V 16  -6274.852164 -14935.735089  26905.322143     -0.039696                    
P 17  20858.369548 -13124.195537  -9394.153541    195.490893                    
V 17  -7088.436073  10540.346317 -29202.208008      0.066294                    
P 18   8132.909721  15522.376823 -20489.558649    112.263289                    
V 18 -24821.293036  -2061.964129 -11616.198024      0.024871                    
P 19  20229.565383 -17026.091733  -2864.543736   -214.945684                    
V 19   -878.301862   3783.413602 -31940.097491      0.051826                    
P 20 -18442.544637  -6117.206788 -18286.777208    527.768884                    
V 20  -9036.554252 -21284.212544  16112.943627      0.000626                    
P 21 -26266.279072  -2800.188919   -141.802145    -58.394844                    
V 21   -751.029368  -3439.697581  31703.538050      0.056180                    
P 22  10794.543370  24322.677633   -469.455118   -781.263225                    
V 22  -3724.340782    773.626085 -30973.915375     -0.014126                    
P 23  10544.308993  11910.072833  21592.783982   -144.263824                    
V 23 -17069.518702  20536.029076  -3423.447219      0.024545                    
P 24 -14956.192282 -14331.799166 -17006.973690     -7.357547                    
V 24  21253.614621    553.458589 -19008.830452     -0.005653                    
P 25 -16174.281198 -15228.934735  14533.044289    -16.365053                    
V 25  -4670.307653 -18220.730388 -23662.674041      0.006821                    
P 26  -7858.994638  16810.097046  18900.653024    123.518085                    
V 26 -10519.586991 -21811.901901  15216.804268      0.080309                    
P 27 -10671.192961  22395.688047  -9139.156837   -175.778889                    
V 27  -9134.517238   7379.223888  29428.050784     -0.113794                    
P 28  13602.068934  -5280.308551 -21603.966974    746.268639                    
V 28   7461.750376  27836.768116  -1919.846629     -0.020796                    
P 29 -15237.703949  -4469.863867  21263.615881     -2.931781                    
V 29  18283.710326 -19870.385949   8892.997452     -0.096908                    
P 30  24725.855159  -1984.740850  -9734.472147   -125.111279                    
V 30  11478.956930   5497.475168  27756.049310     -0.087728                    
P 31 -18256.749850   8748.516951  17397.158961    -15.355096                    
V 31 -21243.428827  -5843.983085 -18863.860309     -0.025008                    
P 32 -20289.125066  14151.762375  -9421.895343    179.850271                    
V 32   5546.324622 -11114.127944 -28581.393711      0.107636                    
EOF
